{"type":"FeatureCollection","features":[{"type":"Feature","properties":{"what":"derived","stroke":"#e00"},"geometry":{"type":"LineString","coordinates":[[-72.920906,41.315479],[-72.921467,41.314297],[-72.921578,41.313998],[-72.92236,41.313003],[-72.923708,41.311143],[-72.924092,41.311082],[-72.925446,41.311641],[-72.925695,41.311416],[-72.927915,41.308369],[-72.928721,41.307318],[-72.929067,41.306766],[-72.931176,41.303911],[-72.931625,41.303398],[-72.931976,41.302866],[-72.932358,41.302385],[-72.931983,41.302292],[-72.930781,41.302662],[-72.930385,41.302748],[-72.929703,41.302644],[-72.928766,41.302139],[-72.929311,41.301352],[-72.92951,41.300799],[-72.929512,41.300475],[-72.92924,41.299264],[-72.929157,41.298712],[-72.928693,41.296803],[-72.928584,41.296491],[-72.928336,41.296256],[-72.928091,41.29646],[-72.927458,41.297162],[-72.927015,41.297598],[-72.926719,41.297782],[-72.925883,41.298789],[-72.924411,41.30041],[-72.924225,41.300667],[-72.924242,41.300984],[-72.924088,41.30128],[-72.923695,41.301386],[-72.923333,41.301377],[-72.922981,41.301512],[-72.922979,41.302362],[-72.922453,41.30286],[-72.922038,41.303359],[-72.921667,41.304168],[-72.921772,41.304442],[-72.922808,41.304805],[-72.923021,41.304571],[-72.923373,41.304033],[-72.924327,41.30276],[-72.924719,41.30268],[-72.927187,41.303743],[-72.927553,41.303815],[-72.928301,41.302805],[-72.928629,41.302949],[-72.930939,41.304218],[-72.93155,41.30347],[-72.932517,41.302162],[-72.933264,41.301968],[-72.933638,41.302002],[-72.934441,41.303646],[-72.934684,41.303891],[-72.934756,41.304168],[-72.932772,41.306927],[-72.93239,41.307407],[-72.931073,41.309266],[-72.928767,41.312399],[-72.928799,41.312684],[-72.929818,41.313264],[-72.930195,41.313373],[-72.930597,41.313363],[-72.932002,41.312894],[-72.932364,41.312905],[-72.932624,41.312703],[-72.932425,41.312438],[-72.931146,41.311339],[-72.930622,41.310941],[-72.927155,41.309499],[-72.92688,41.309689],[-72.92569,41.311244],[-72.925523,41.311487],[-72.925469,41.312068],[-72.924682,41.314763],[-72.923334,41.319805],[-72.923303,41.32098],[-72.923384,41.322244],[-72.923342,41.323302],[-72.9233,41.323968],[-72.923128,41.324807],[-72.922309,41.326798],[-72.922167,41.327075],[-72.922044,41.327636],[-72.921974,41.32823],[-72.921739,41.328448],[-72.915004,41.328101],[-72.915058,41.327824],[-72.915657,41.326652],[-72.918178,41.321173],[-72.91866,41.320277],[-72.919626,41.318295],[-72.920669,41.316004]]}},{"type":"Feature","properties":{"what":"upstream","stroke":"#08f"},"geometry":{"type":"LineString","coordinates":[[-72.92007,41.3179],[-72.91973,41.3178],[-72.9215,41.31404],[-72.92227,41.3131],[-72.92381,41.31098],[-72.92555,41.31171],[-72.92559,41.31144],[-72.92869,41.30729],[-72.92912,41.30664],[-72.93143,41.3036],[-72.92877,41.30217],[-72.9294,41.30125],[-72.92952,41.30088],[-72.92954,41.30061],[-72.92873,41.29685],[-72.92862,41.29655],[-72.92835,41.2962],[-72.92465,41.30026],[-72.92432,41.30054],[-72.92425,41.30073],[-72.92426,41.30108],[-72.92371,41.30178],[-72.92333,41.30332],[-72.92375,41.3035],[-72.92441,41.30261],[-72.92452,41.3026],[-72.92743,41.30382],[-72.92814,41.3029],[-72.92829,41.3028],[-72.93092,41.30427],[-72.93241,41.30221],[-72.93351,41.30187],[-72.93458,41.30375],[-72.93469,41.30389],[-72.93491,41.304],[-72.93319,41.30627],[-72.93082,41.30957],[-72.92934,41.31154],[-72.92861,41.31262],[-72.92913,41.31283],[-72.92985,41.31332],[-72.93022,41.3134],[-72.93052,41.3134],[-72.93192,41.31293],[-72.9322,41.31288],[-72.93252,41.31289],[-72.93255,41.31282],[-72.93257,41.31271],[-72.93252,41.31254],[-72.93075,41.31101],[-72.93021,41.31082],[-72.92705,41.30947],[-72.92559,41.31144],[-72.92556,41.31189],[-72.92346,41.31941],[-72.92337,41.31977],[-72.92332,41.32028],[-72.91887,41.3196],[-72.91973,41.3178],[-72.92007,41.3179]]}},{"type":"Feature","properties":{"what":"stop","name":"333 Cedar"},"geometry":{"type":"Point","coordinates":[-72.934247,41.303254]}},{"type":"Feature","properties":{"what":"stop","name":"129 York"},"geometry":{"type":"Point","coordinates":[-72.933001,41.306539]}},{"type":"Feature","properties":{"what":"stop","name":"180 York (A&A)"},"geometry":{"type":"Point","coordinates":[-72.931417,41.30872]}},{"type":"Feature","properties":{"what":"stop","name":"Wall / York"},"geometry":{"type":"Point","coordinates":[-72.928948,41.312102]}},{"type":"Feature","properties":{"what":"stop","name":"Payne Whitney Gym"},"geometry":{"type":"Point","coordinates":[-72.930694,41.313444]}},{"type":"Feature","properties":{"what":"stop","name":"Elm / York (TYCO)"},"geometry":{"type":"Point","coordinates":[-72.93054,41.31086]}},{"type":"Feature","properties":{"what":"stop","name":"College / Wall (N)"},"geometry":{"type":"Point","coordinates":[-72.926188,41.310583]}},{"type":"Feature","properties":{"what":"stop","name":"Prospect / Sachem (N)"},"geometry":{"type":"Point","coordinates":[-72.924393,41.315749]}},{"type":"Feature","properties":{"what":"stop","name":"Peabody Museum / Whitney / Sachem"},"geometry":{"type":"Point","coordinates":[-72.920859,41.315675]}},{"type":"Feature","properties":{"what":"stop","name":"Temple / Grove"},"geometry":{"type":"Point","coordinates":[-72.923753,41.311184]}},{"type":"Feature","properties":{"what":"stop","name":"College / Wall (S)"},"geometry":{"type":"Point","coordinates":[-72.926148,41.310836]}},{"type":"Feature","properties":{"what":"stop","name":"Phelps Gate"},"geometry":{"type":"Point","coordinates":[-72.927978,41.308356]}},{"type":"Feature","properties":{"what":"stop","name":"College / Crown"},"geometry":{"type":"Point","coordinates":[-72.929592,41.306177]}},{"type":"Feature","properties":{"what":"stop","name":"300 George St"},"geometry":{"type":"Point","coordinates":[-72.930745,41.305166]}},{"type":"Feature","properties":{"what":"stop","name":"LEPH / 60 College"},"geometry":{"type":"Point","coordinates":[-72.931698,41.303422]}},{"type":"Feature","properties":{"what":"stop","name":"100 Church Street South"},"geometry":{"type":"Point","coordinates":[-72.929425,41.299671]}},{"type":"Feature","properties":{"what":"stop","name":"Union Station (N)"},"geometry":{"type":"Point","coordinates":[-72.926763,41.297857]}},{"type":"Feature","properties":{"what":"stop","name":"81 George St"},"geometry":{"type":"Point","coordinates":[-72.926405,41.303464]}},{"type":"Feature","properties":{"what":"stop","name":"Church / George"},"geometry":{"type":"Point","coordinates":[-72.92784,41.30342]}},{"type":"Feature","properties":{"what":"stop","name":"Congress / Cedar"},"geometry":{"type":"Point","coordinates":[-72.933299,41.30199]}}]}